{
  "links" : {
    "next" : "https://api.nasa.gov/neo/rest/v1/feed?start_date=2005-09-16&end_date=2005-09-16&detailed=true&api_key=t0TVs3DtDT2H8Oy2Zy8m2eVrNsAVKAexjcZXUckd",
    "prev" : "https://api.nasa.gov/neo/rest/v1/feed?start_date=2005-09-14&end_date=2005-09-14&detailed=true&api_key=t0TVs3DtDT2H8Oy2Zy8m2eVrNsAVKAexjcZXUckd",
    "self" : "https://api.nasa.gov/neo/rest/v1/feed?start_date=2005-09-15&end_date=2005-09-15&detailed=true&api_key=t0TVs3DtDT2H8Oy2Zy8m2eVrNsAVKAexjcZXUckd"
  },
  "element_count" : 6,
  "near_earth_objects" : {
    "2005-09-15" : [ {
      "links" : {
        "self" : "https://api.nasa.gov/neo/rest/v1/neo/3555410?api_key=t0TVs3DtDT2H8Oy2Zy8m2eVrNsAVKAexjcZXUckd"
      },
      "neo_reference_id" : "3555410",
      "name" : "(2011 AW55)",
      "nasa_jpl_url" : "http://ssd.jpl.nasa.gov/sbdb.cgi?sstr=3555410",
      "absolute_magnitude_h" : 20.7,
      "estimated_diameter" : {
        "kilometers" : {
          "estimated_diameter_min" : 0.1925550782,
          "estimated_diameter_max" : 0.4305662442
        },
        "meters" : {
          "estimated_diameter_min" : 192.5550781879,
          "estimated_diameter_max" : 430.566244241
        },
        "miles" : {
          "estimated_diameter_min" : 0.1196481415,
          "estimated_diameter_max" : 0.2675413778
        },
        "feet" : {
          "estimated_diameter_min" : 631.7424027221,
          "estimated_diameter_max" : 1412.6189567557
        }
      },
      "is_potentially_hazardous_asteroid" : false,
      "close_approach_data" : [ {
        "close_approach_date" : "2005-09-15",
        "epoch_date_close_approach" : 1126767600000,
        "relative_velocity" : {
          "kilometers_per_second" : "18.6613721944",
          "kilometers_per_hour" : "67180.9398997774",
          "miles_per_hour" : "41743.6234616144"
        },
        "miss_distance" : {
          "astronomical" : "0.3324370639",
          "lunar" : "129.3180236816",
          "kilometers" : "49731876",
          "miles" : "30901956"
        },
        "orbiting_body" : "Earth"
      } ],
      "orbital_data" : {
        "orbit_id" : "12",
        "orbit_determination_date" : "2017-04-06 08:54:56",
        "orbit_uncertainty" : "1",
        "minimum_orbit_intersection" : ".176403",
        "jupiter_tisserand_invariant" : "5.440",
        "epoch_osculation" : "2458000.5",
        "eccentricity" : ".5170626669234848",
        "semi_major_axis" : "1.10534583524958",
        "inclination" : "21.90469663361229",
        "ascending_node_longitude" : "304.2226333948637",
        "orbital_period" : "424.4687239539472",
        "perihelion_distance" : ".5338127698026653",
        "perihelion_argument" : "321.9297945544304",
        "aphelion_distance" : "1.676878900696495",
        "perihelion_time" : "2457833.891884808457",
        "mean_anomaly" : "141.3035120944806",
        "mean_motion" : ".8481190242866004",
        "equinox" : "J2000"
      }
    }, {
      "links" : {
        "self" : "https://api.nasa.gov/neo/rest/v1/neo/3558378?api_key=t0TVs3DtDT2H8Oy2Zy8m2eVrNsAVKAexjcZXUckd"
      },
      "neo_reference_id" : "3558378",
      "name" : "(2011 EO11)",
      "nasa_jpl_url" : "http://ssd.jpl.nasa.gov/sbdb.cgi?sstr=3558378",
      "absolute_magnitude_h" : 27.4,
      "estimated_diameter" : {
        "kilometers" : {
          "estimated_diameter_min" : 0.0088014652,
          "estimated_diameter_max" : 0.0196806745
        },
        "meters" : {
          "estimated_diameter_min" : 8.801465209,
          "estimated_diameter_max" : 19.6806745089
        },
        "miles" : {
          "estimated_diameter_min" : 0.0054689752,
          "estimated_diameter_max" : 0.0122290004
        },
        "feet" : {
          "estimated_diameter_min" : 28.8761991163,
          "estimated_diameter_max" : 64.5691441559
        }
      },
      "is_potentially_hazardous_asteroid" : false,
      "close_approach_data" : [ {
        "close_approach_date" : "2005-09-15",
        "epoch_date_close_approach" : 1126767600000,
        "relative_velocity" : {
          "kilometers_per_second" : "14.1643330541",
          "kilometers_per_hour" : "50991.5989946038",
          "miles_per_hour" : "31684.1966086192"
        },
        "miss_distance" : {
          "astronomical" : "0.1030833827",
          "lunar" : "40.0994338989",
          "kilometers" : "15421054",
          "miles" : "9582199"
        },
        "orbiting_body" : "Earth"
      } ],
      "orbital_data" : {
        "orbit_id" : "6",
        "orbit_determination_date" : "2017-04-06 08:54:16",
        "orbit_uncertainty" : "7",
        "minimum_orbit_intersection" : ".00211613",
        "jupiter_tisserand_invariant" : "5.596",
        "epoch_osculation" : "2458000.5",
        "eccentricity" : ".322815177208284",
        "semi_major_axis" : "1.097785414441877",
        "inclination" : "10.03139623088983",
        "ascending_node_longitude" : "345.0591433638676",
        "orbital_period" : "420.1212135596222",
        "perihelion_distance" : ".7434036213421532",
        "perihelion_argument" : "272.0942478291385",
        "aphelion_distance" : "1.452167207541601",
        "perihelion_time" : "2457792.148549809528",
        "mean_anomaly" : "178.5354313176695",
        "mean_motion" : ".8568955539040163",
        "equinox" : "J2000"
      }
    }, {
      "links" : {
        "self" : "https://api.nasa.gov/neo/rest/v1/neo/3726714?api_key=t0TVs3DtDT2H8Oy2Zy8m2eVrNsAVKAexjcZXUckd"
      },
      "neo_reference_id" : "3726714",
      "name" : "(2015 RV1)",
      "nasa_jpl_url" : "http://ssd.jpl.nasa.gov/sbdb.cgi?sstr=3726714",
      "absolute_magnitude_h" : 19.8,
      "estimated_diameter" : {
        "kilometers" : {
          "estimated_diameter_min" : 0.2914439045,
          "estimated_diameter_max" : 0.6516883822
        },
        "meters" : {
          "estimated_diameter_min" : 291.4439045349,
          "estimated_diameter_max" : 651.6883821679
        },
        "miles" : {
          "estimated_diameter_min" : 0.1810947904,
          "estimated_diameter_max" : 0.4049402617
        },
        "feet" : {
          "estimated_diameter_min" : 956.1808197541,
          "estimated_diameter_max" : 2138.0853117517
        }
      },
      "is_potentially_hazardous_asteroid" : false,
      "close_approach_data" : [ {
        "close_approach_date" : "2005-09-15",
        "epoch_date_close_approach" : 1126767600000,
        "relative_velocity" : {
          "kilometers_per_second" : "17.1972981299",
          "kilometers_per_hour" : "61910.2732678157",
          "miles_per_hour" : "38468.6361868825"
        },
        "miss_distance" : {
          "astronomical" : "0.4964822736",
          "lunar" : "193.1316070557",
          "kilometers" : "74272696",
          "miles" : "46150912"
        },
        "orbiting_body" : "Earth"
      } ],
      "orbital_data" : {
        "orbit_id" : "27",
        "orbit_determination_date" : "2017-04-06 08:32:13",
        "orbit_uncertainty" : "4",
        "minimum_orbit_intersection" : ".356522",
        "jupiter_tisserand_invariant" : "3.383",
        "epoch_osculation" : "2458000.5",
        "eccentricity" : ".4724262090862492",
        "semi_major_axis" : "2.247725848913845",
        "inclination" : "22.75932447101335",
        "ascending_node_longitude" : "326.9337622883539",
        "orbital_period" : "1230.873543099362",
        "perihelion_distance" : "1.185841247046306",
        "perihelion_argument" : "70.53592374773444",
        "aphelion_distance" : "3.309610450781385",
        "perihelion_time" : "2458578.150636691753",
        "mean_anomaly" : "191.0515077890142",
        "mean_motion" : ".2924752116237004",
        "equinox" : "J2000"
      }
    } ]
  }
}